[{"OBJECT_NAME":"SWAS","OBJECT_ID":"1998-071A","EPOCH":"2026-03-09T12:50:12.826752","MEAN_MOTION":15.08888192,"ECCENTRICITY":0.00040991,"INCLINATION":69.8952,"RA_OF_ASC_NODE":124.3662,"ARG_OF_PERICENTER":14.3215,"MEAN_ANOMALY":345.8065,"EPHEMERIS_TYPE":0,"CLASSIFICATION_TYPE":"U","NORAD_CAT_ID":25560,"ELEMENT_SET_NO":999,"REV_AT_EPOCH":48223,"BSTAR":0.00029986322,"MEAN_MOTION_DOT":4.636e-5,"MEAN_MOTION_DDOT":0},{"OBJECT_NAME":"STARLINK-2249","OBJECT_ID":"2021-041AR","EPOCH":"2026-03-09T11:13:28.383168","MEAN_MOTION":15.06407403,"ECCENTRICITY":0.00011939,"INCLINATION":53.055,"RA_OF_ASC_NODE":142.8481,"ARG_OF_PERICENTER":85.929,"MEAN_ANOMALY":274.1835,"EPHEMERIS_TYPE":0,"CLASSIFICATION_TYPE":"U","NORAD_CAT_ID":48592,"ELEMENT_SET_NO":999,"REV_AT_EPOCH":26502,"BSTAR":3.0330581e-5,"MEAN_MOTION_DOT":1.71e-6,"MEAN_MOTION_DDOT":0}]
