SWAS                    
1 25560U 98071A   26068.53487068  .00004636  00000+0  29986-3 0  9991
2 25560  69.8952 124.3662 0004099  14.3215 345.8065 15.08888192482231
STARLINK-2249           
1 48592U 21041AR  26068.46768962  .00000171  00000+0  30331-4 0  9998
2 48592  53.0550 142.8481 0001193  85.9290 274.1835 15.06407403265028
